[
  {"label":"北京Beijing010","name":"北京","pinyin":"Beijing","zip":"010"},
  {"label":"重庆Chongqing023","name":"重庆","pinyin":"Chongqing","zip":"023"},
  {"label":"上海Shanghai021","name":"上海","pinyin":"Shanghai","zip":"021"},
  {"label":"天津Tianjin022","name":"天津","pinyin":"Tianjin","zip":"022"},
  {"label":"长春Changchun0431","name":"长春","pinyin":"Changchun","zip":"0431"},
  {"label":"长沙Changsha0731","name":"长沙","pinyin":"Changsha","zip":"0731"},
  {"label":"常州Changzhou0519","name":"常州","pinyin":"Changzhou","zip":"0519"},
  {"label":"成都Chengdu028","name":"成都","pinyin":"Chengdu","zip":"028"},
  {"label":"大连Dalian0411","name":"大连","pinyin":"Dalian","zip":"0411"},
  {"label":"东莞Dongguan0769","name":"东莞","pinyin":"Dongguan","zip":"0769"},
  {"label":"佛山Foshan0757","name":"佛山","pinyin":"Foshan","zip":"0757"},
  {"label":"福州Fuzhou0591","name":"福州","pinyin":"Fuzhou","zip":"0591"},
  {"label":"广州Guangzhou020","name":"广州","pinyin":"Guangzhou","zip":"020"},
  {"label":"贵阳Guiyang0851","name":"贵阳","pinyin":"Guiyang","zip":"0851"},
  {"label":"哈尔滨Haerbin0451","name":"哈尔滨","pinyin":"Haerbin","zip":"0451"},
  {"label":"海口Haikou0898","name":"海口","pinyin":"Haikou","zip":"0898"},
  {"label":"邯郸Handan0310","name":"邯郸","pinyin":"Handan","zip":"0310"},
  {"label":"杭州Hangzhou0571","name":"杭州","pinyin":"Hangzhou","zip":"0571"},
  {"label":"合肥Hefei0551","name":"合肥","pinyin":"Hefei","zip":"0551"},
  {"label":"惠州Huizhou0752","name":"惠州","pinyin":"Huizhou","zip":"0752"},
  {"label":"焦作Jiaozuo0391","name":"焦作","pinyin":"Jiaozuo","zip":"0391"},
  {"label":"嘉兴Jiaxing0573","name":"嘉兴","pinyin":"Jiaxing","zip":"0573"},
  {"label":"吉林Jilin0423","name":"吉林","pinyin":"Jilin","zip":"0423"},
  {"label":"济南Jinan0531","name":"济南","pinyin":"Jinan","zip":"0531"},
  {"label":"昆明Kunming0871","name":"昆明","pinyin":"Kunming","zip":"0871"},
  {"label":"兰州Lanzhou0931","name":"兰州","pinyin":"Lanzhou","zip":"0931"},
  {"label":"柳州Liuzhou0772","name":"柳州","pinyin":"Liuzhou","zip":"0772"},
  {"label":"洛阳Luoyang0379","name":"洛阳","pinyin":"Luoyang","zip":"0379"},
  {"label":"南昌Nanchang0791","name":"南昌","pinyin":"Nanchang","zip":"0791"},
  {"label":"南京Nanjing025","name":"南京","pinyin":"Nanjing","zip":"025"},
  {"label":"南宁Nanning0771","name":"南宁","pinyin":"Nanning","zip":"0771"},
  {"label":"南通Nantong0513","name":"南通","pinyin":"Nantong","zip":"0513"},
  {"label":"宁波Ningbo0574","name":"宁波","pinyin":"Ningbo","zip":"0574"},
  {"label":"青岛Qingdao0532","name":"青岛","pinyin":"Qingdao","zip":"0532"},
  {"label":"泉州Quanzhou0595","name":"泉州","pinyin":"Quanzhou","zip":"0595"},
  {"label":"沈阳Shenyang024","name":"沈阳","pinyin":"Shenyang","zip":"024"},
  {"label":"深圳Shenzhen0755","name":"深圳","pinyin":"Shenzhen","zip":"0755"},
  {"label":"石家庄Shijiazhuang0311","name":"石家庄","pinyin":"Shijiazhuang","zip":"0311"},
  {"label":"苏州Suzhou0512","name":"苏州","pinyin":"Suzhou","zip":"0512"},
  {"label":"台州Taizhou0576","name":"台州","pinyin":"Taizhou","zip":"0576"},
  {"label":"唐山Tangshan0315","name":"唐山","pinyin":"Tangshan","zip":"0315"},
  {"label":"潍坊Weifang0536","name":"潍坊","pinyin":"Weifang","zip":"0536"},
  {"label":"威海Weihai0631","name":"威海","pinyin":"Weihai","zip":"0631"},
  {"label":"武汉Wuhan027","name":"武汉","pinyin":"Wuhan","zip":"027"},
  {"label":"无锡Wuxi0510","name":"无锡","pinyin":"Wuxi","zip":"0510"},
  {"label":"厦门Xiamen0592","name":"厦门","pinyin":"Xiamen","zip":"0592"},
  {"label":"西安Xian029","name":"西安","pinyin":"Xian","zip":"029"},
  {"label":"许昌Xuchang0374","name":"许昌","pinyin":"Xuchang","zip":"0374"},
  {"label":"徐州Xuzhou0516","name":"徐州","pinyin":"Xuzhou","zip":"0516"},
  {"label":"扬州Yangzhou0514","name":"扬州","pinyin":"Yangzhou","zip":"0514"},
  {"label":"烟台Yantai0535","name":"烟台","pinyin":"Yantai","zip":"0535"},
  {"label":"漳州Zhangzhou0596","name":"漳州","pinyin":"Zhangzhou","zip":"0596"},
  {"label":"郑州Zhengzhou0371","name":"郑州","pinyin":"Zhengzhou","zip":"0371"},
  {"label":"中山Zhongshan0760","name":"中山","pinyin":"Zhongshan","zip":"0760"},
  {"label":"珠海Zhuhai0756","name":"珠海","pinyin":"Zhuhai","zip":"0756"},
  {"label":"阿坝Aba0837","name":"阿坝","pinyin":"Aba","zip":"0837"},
  {"label":"阿克苏Akesu0997","name":"阿克苏","pinyin":"Akesu","zip":"0997"},
  {"label":"阿拉善盟Alashanmeng0483","name":"阿拉善盟","pinyin":"Alashanmeng","zip":"0483"},
  {"label":"阿勒泰Aletai0906","name":"阿勒泰","pinyin":"Aletai","zip":"0906"},
  {"label":"阿里Ali0897","name":"阿里","pinyin":"Ali","zip":"0897"},
  {"label":"安康Ankang0915","name":"安康","pinyin":"Ankang","zip":"0915"},
  {"label":"安庆Anqing0556","name":"安庆","pinyin":"Anqing","zip":"0556"},
  {"label":"鞍山Anshan0412","name":"鞍山","pinyin":"Anshan","zip":"0412"},
  {"label":"安顺Anshun0853","name":"安顺","pinyin":"Anshun","zip":"0853"},
  {"label":"安阳Anyang0372","name":"安阳","pinyin":"Anyang","zip":"0372"},
  {"label":"白城Baicheng0436","name":"白城","pinyin":"Baicheng","zip":"0436"},
  {"label":"百色Baise0776","name":"百色","pinyin":"Baise","zip":"0776"},
  {"label":"白山Baishan0439","name":"白山","pinyin":"Baishan","zip":"0439"},
  {"label":"白银Baiyin0943","name":"白银","pinyin":"Baiyin","zip":"0943"},
  {"label":"蚌埠Bangbu0552","name":"蚌埠","pinyin":"Bangbu","zip":"0552"},
  {"label":"保定Baoding0312","name":"保定","pinyin":"Baoding","zip":"0312"},
  {"label":"宝鸡Baoji0917","name":"宝鸡","pinyin":"Baoji","zip":"0917"},
  {"label":"保山Baoshan0875","name":"保山","pinyin":"Baoshan","zip":"0875"},
  {"label":"包头Baotou0472","name":"包头","pinyin":"Baotou","zip":"0472"},
  {"label":"巴彦淖尔Bayannaoer0478","name":"巴彦淖尔","pinyin":"Bayannaoer","zip":"0478"},
  {"label":"巴音郭楞Bayinguoleng0996","name":"巴音郭楞","pinyin":"Bayinguoleng","zip":"0996"},
  {"label":"巴中Bazhong0827","name":"巴中","pinyin":"Bazhong","zip":"0827"},
  {"label":"北海Beihai0779","name":"北海","pinyin":"Beihai","zip":"0779"},
  {"label":"本溪Benxi0414","name":"本溪","pinyin":"Benxi","zip":"0414"}
]
